[{"OBJECT_NAME":"STARLINK-5738","OBJECT_ID":"2023-020E","EPOCH":"2026-03-09T04:59:50.874144","MEAN_MOTION":15.02538013,"ECCENTRICITY":0.00011997,"INCLINATION":43.0055,"RA_OF_ASC_NODE":7.534,"ARG_OF_PERICENTER":274.1323,"MEAN_ANOMALY":85.9382,"EPHEMERIS_TYPE":0,"CLASSIFICATION_TYPE":"U","NORAD_CAT_ID":55573,"ELEMENT_SET_NO":999,"REV_AT_EPOCH":16884,"BSTAR":-1.0852628e-5,"MEAN_MOTION_DOT":-3.5e-6,"MEAN_MOTION_DDOT":0},{"OBJECT_NAME":"CZ-4B DEB","OBJECT_ID":"1999-057Q","EPOCH":"2026-03-09T11:26:54.640320","MEAN_MOTION":15.06874272,"ECCENTRICITY":0.0020008,"INCLINATION":98.6841,"RA_OF_ASC_NODE":262.2845,"ARG_OF_PERICENTER":336.9186,"MEAN_ANOMALY":80.9466,"EPHEMERIS_TYPE":0,"CLASSIFICATION_TYPE":"U","NORAD_CAT_ID":26128,"ELEMENT_SET_NO":999,"REV_AT_EPOCH":40054,"BSTAR":0.00062227426,"MEAN_MOTION_DOT":9.256e-5,"MEAN_MOTION_DDOT":0}]
